OBJECT_NAME,OBJECT_ID,EPOCH,MEAN_MOTION,ECCENTRICITY,INCLINATION,RA_OF_ASC_NODE,ARG_OF_PERICENTER,MEAN_ANOMALY,EPHEMERIS_TYPE,CLASSIFICATION_TYPE,NORAD_CAT_ID,ELEMENT_SET_NO,REV_AT_EPOCH,BSTAR,MEAN_MOTION_DOT,MEAN_MOTION_DDOT
STARLINK-4486,2022-101P,2022-08-29T14:00:01.000224,15.76797769,.0003423,53.2175,106.2854,355.8292,176.8014,0,U,53540,999,130,-.82128E-2,-.1198261E-1,0
STARLINK-4485,2022-101Q,2022-08-29T14:00:01.000224,15.76726490,.0003255,53.2176,106.2891,1.1684,169.4257,0,U,53541,999,130,-.82332E-2,-.1197395E-1,0
STARLINK-4489,2022-101R,2022-08-29T14:00:01.000224,15.76830082,.0003238,53.2175,106.2834,1.8367,171.8231,0,U,53542,999,130,-.81946E-2,-.1197321E-1,0
STARLINK-4297,2022-101S,2022-08-29T14:00:01.000224,15.76778904,.0003242,53.2175,106.2861,0.9799,171.1461,0,U,53543,999,130,-.82145E-2,-.1197465E-1,0
STARLINK-4303,2022-101T,2022-08-29T14:00:01.000224,15.76863961,.0003167,53.2175,106.2814,359.4405,175.2417,0,U,53544,999,130,-.81838E-2,-.1197488E-1,0
STARLINK-4475,2022-101U,2022-08-29T14:00:01.000224,15.76812756,.000323,53.2175,106.2841,357.7143,175.4372,0,U,53545,999,130,-.82054E-2,-.1197891E-1,0
STARLINK-4477,2022-101V,2022-08-29T14:00:01.000224,15.91750153,.0030064,53.2176,105.6863,73.0851,38.3616,0,U,53546,999,130,-.37172E-2,-.1299008E-1,.49097E-3
STARLINK-4474,2022-101W,2022-08-29T14:00:01.000224,15.76846647,.0003286,53.2175,106.2821,357.6917,176.4825,0,U,53547,999,130,-.81926E-2,-.1197882E-1,0
STARLINK-4513,2022-101X,2022-08-29T14:00:01.000224,15.76932333,.0003364,53.2175,106.2775,351.6702,185.0485,0,U,53548,999,130,-.8162E-2,-.1198039E-1,0
STARLINK-4516,2022-101Y,2022-08-29T14:00:01.000224,15.76880049,.0003253,53.2175,106.2801,4.3097,170.8844,0,U,53549,999,130,-.81705E-2,-.1196581E-1,0
STARLINK-4518,2022-101Z,2022-08-29T14:00:01.000224,15.76949165,.0003444,53.2175,106.2765,347.4210,189.8052,0,U,53550,999,130,-.8152E-2,-.1197591E-1,0
STARLINK-4514,2022-101AA,2022-08-29T14:00:01.000224,15.76898034,.0003219,53.2175,106.2791,353.9533,181.7485,0,U,53551,999,130,-.81733E-2,-.119778E-1,0
STARLINK-4495,2022-101AB,2022-08-29T14:00:01.000224,15.77000250,.0003423,53.2175,106.2735,348.4441,190.3044,0,U,53552,999,130,-.8133E-2,-.1197534E-1,0
STARLINK-4501,2022-101AC,2022-08-29T14:00:01.000224,15.76966144,.0003269,53.2175,106.2751,355.1032,182.6316,0,U,53553,999,130,-.81461E-2,-.1197517E-1,0
STARLINK-4506,2022-101AD,2022-08-29T14:00:01.000224,15.77033818,.0003463,53.2175,106.2714,354.1359,185.6278,0,U,53554,999,130,-.81188E-2,-.1197304E-1,0
STARLINK-4504,2022-101AE,2022-08-29T14:00:01.000224,15.76983136,.0003282,53.2175,106.2741,359.1496,179.0920,0,U,53555,999,130,-.81365E-2,-.1197082E-1,0
STARLINK-4505,2022-101AF,2022-08-29T14:00:01.000224,15.77068008,.000332,53.2175,106.2694,357.8989,182.8755,0,U,53556,999,130,-.81058E-2,-.1197139E-1,0
STARLINK-4502,2022-101AG,2022-08-29T14:00:01.000224,15.77016469,.0003617,53.2175,106.2721,346.7377,192.5202,0,U,53557,999,130,-.81231E-2,-.1197142E-1,0
STARLINK-4494,2022-101AH,2022-08-29T14:00:01.000224,15.77100742,.0003347,53.2175,106.2674,357.4183,184.3729,0,U,53558,999,130,-.80939E-2,-.1197158E-1,0
STARLINK-4508,2022-101AJ,2022-08-29T14:00:01.000224,15.77050284,.000341,53.2175,106.2701,353.1739,187.0979,0,U,53559,999,130,-.81111E-2,-.1197047E-1,0
STARLINK-4564,2022-101AK,2022-08-29T14:00:01.000224,15.77134910,.0003629,53.2175,106.2654,347.9723,194.8243,0,U,53560,999,130,-.80776E-2,-.1196835E-1,0
STARLINK-4563,2022-101AL,2022-08-29T14:00:01.000224,15.77085624,.000332,53.2175,106.2680,1.5167,179.7601,0,U,53561,999,130,-.80997E-2,-.119718E-1,0
STARLINK-4565,2022-101AM,2022-08-29T14:00:01.000224,15.77168967,.0003336,53.2175,106.2634,1.5848,182.2209,0,U,53562,999,130,-.80687E-2,-.1197096E-1,0
STARLINK-4561,2022-101AN,2022-08-29T14:00:01.000224,15.77117437,.0003612,53.2175,106.2660,347.7630,194.5321,0,U,53563,999,130,-.80839E-2,-.1196817E-1,0
STARLINK-4577,2022-101AP,2022-08-29T14:00:01.000224,15.77202613,.0003347,53.2175,106.2614,358.5163,186.2951,0,U,53564,999,130,-.80537E-2,-.1196733E-1,0
STARLINK-4575,2022-101AQ,2022-08-29T14:00:01.000224,15.77153473,.0003421,53.2175,106.2640,355.8065,187.4876,0,U,53565,999,130,-.80758E-2,-.1197346E-1,0
STARLINK-4576,2022-101AR,2022-08-29T14:00:01.000224,15.77236447,.000328,53.2175,106.2594,1.8549,183.9622,0,U,53566,999,130,-.80436E-2,-.1196973E-1,0
STARLINK-4585,2022-101AS,2022-08-29T14:00:01.000224,15.77186466,.0003064,53.2175,106.2620,6.5225,177.7820,0,U,53567,999,130,-.80598E-2,-.1196583E-1,0
STARLINK-4583,2022-101AT,2022-08-29T14:00:01.000224,15.77287695,.000329,53.2175,106.2564,2.6319,184.6867,0,U,53568,999,130,-.80253E-2,-.119701E-1,0
STARLINK-4582,2022-101AU,2022-08-29T14:00:01.000224,15.77218588,.0003337,53.2175,106.2600,359.1467,186.1727,0,U,53569,999,130,-.80485E-2,-.1196804E-1,0
